GLOBALSTAR M095
1 39077U 13005F   19302.43457666 -.00000123  00000-0 -10516-3 0  9995
2 39077  51.9786  99.8180 0000656  54.7389 305.3539 12.62264960310260
GLOBALSTAR M078
1 39076U 13005E   19301.85425935 -.00000112 +00000-0 -47833-4 0  9994
2 39076 051.9859 103.3627 0000397 351.3212 008.7648 12.62278909310184
GLOBALSTAR M096
1 39075U 13005D   19301.72234233 -.00000098  00000-0  30114-4 0  9994
2 39075  52.0098  16.4571 0000566  80.7022 279.3908 12.62266326311683
GLOBALSTAR M094
1 39074U 13005C   19301.62974969 -.00000094  00000-0  53740-4 0  9995
2 39074  51.9968 329.8353 0000553  65.0779 295.0145 12.62268743312411
GLOBALSTAR M093
1 39073U 13005B   19301.78795405 -.00000120  00000-0 -88836-4 0  9992
2 39073  51.9823  57.0246 0000869  70.9321 289.1640 12.62265694310930
GLOBALSTAR M097
1 39072U 13005A   19301.81452271 -.00000117  00000-0 -74774-4 0  9998
2 39072  52.0061  60.3416 0000960  87.0984 272.9992 12.62263514310947
GLOBALSTAR M086
1 38045U 11080F   19301.88975279 -.00000077 +00000-0 +14867-3 0  9993
2 38045 051.9874 147.6735 0002309 093.0963 008.5823 12.62268235363626
GLOBALSTAR M090
1 38044U 11080E   19302.11121649 -.00000086  00000-0  99686-4 0  9996
2 38044  51.9862 146.6049 0000948  80.2464  69.8863 12.62266505363745
GLOBALSTAR M092
1 38043U 11080D   19302.29259185 -.00000106  00000-0 -10305-4 0  9996
2 38043  52.0084 239.8496 0000439  81.2215  51.8517 12.62266283362270
GLOBALSTAR M082
1 38042U 11080C   19301.91641953 -.00000083 +00000-0 +11373-3 0  9999
2 38042 052.0054 150.7367 0000878 066.5059 037.7825 12.62264874363677
GLOBALSTAR M080
1 38041U 11080B   19302.14368132 -.00000069  00000-0  19513-3 0  9997
2 38041  52.0049 194.8166 0001069  91.3238  25.0702 12.62269039363025
GLOBALSTAR M084
1 38040U 11080A   19302.09779447 -.00000074  00000-0  16734-3 0  9993
2 38040  51.9997 194.0736 0000972  93.3365  54.0275 12.62267275363032
GLOBALSTAR M089
1 37744U 11033F   19301.61041955 -.00000081  00000-0  12448-3 0  9990
2 37744  51.9940 329.3470 0000382 114.7295  38.2565 12.62263602384964
GLOBALSTAR M081
1 37743U 11033E   19302.50977161 -.00000086  00000-0  10146-3 0  9993
2 37743  51.9982  11.9927 0000677  75.5279  25.8862 12.62265403384360
GLOBALSTAR M085
1 37742U 11033D   19302.39939157 -.00000092  00000-0  64011-4 0  9990
2 37742  51.9891  10.8108 0000371  87.8275 352.2230 12.62268143384315
GLOBALSTAR M091
1 37741U 11033C   19301.87361611 -.00000125 +00000-0 -11646-3 0  9998
2 37741 052.0009 059.5520 0000662 097.3979 051.3673 12.62265662383416
GLOBALSTAR M088
1 37740U 11033B   19302.02039112 -.00000116  00000-0 -66824-4 0  9992
2 37740  51.9721  99.2373 0000989  85.0383  72.0014 12.62265356382762
GLOBALSTAR M083
1 37739U 11033A   19302.28518845 -.00000099  00000-0  29058-4 0  9990
2 37739  51.9852 191.2087 0000896  52.3614 108.2768 12.62266315387322
GLOBALSTAR M073
1 37193U 10054F   19301.39939300 -.00000104  00000-0 -19429-5 0  9990
2 37193  52.0053 242.3645 0000795  70.7490  81.9462 12.62267092417889
GLOBALSTAR M075
1 37192U 10054E   19302.49929980 -.00000090  00000-0  77442-4 0  9995
2 37192  51.9956 326.7534 0000758  78.4253  35.6728 12.62263559416517
GLOBALSTAR M077
1 37191U 10054D   19302.15369639 -.00000101  00000-0  18090-4 0  9993
2 37191  52.0065 240.6778 0000870  67.1239  35.4486 12.62278669417986
GLOBALSTAR M076
1 37190U 10054C   19302.49360892 -.00000106  00000-0 -10624-4 0  9992
2 37190  52.0030 283.3729 0000997  72.4757  76.1425 12.62268229417279
GLOBALSTAR M074
1 37189U 10054B   19301.88753649 -.00000109  00000-0 -28664-4 0  9994
2 37189  52.0011 285.2404 0000936  52.4765 339.0715 12.62263673417199
GLOBALSTAR M079
1 37188U 10054A   19302.19516167 -.00000109  00000-0 -28566-4 0  9991
2 37188  52.0034 284.6611 0000770  54.8861  55.0353 12.62267279417239
GLOBALSTAR M068
1 32266U 07048D   19302.38607517 -.00000110  00000-0 -34960-4 0  9990
2 32266  51.9878  94.2924 0000536 171.8782 206.0776 12.62708227557874
GLOBALSTAR M066
1 32265U 07048C   19302.50162545 -.00000085  00000-0  10713-3 0  9999
2 32265  51.9654 139.3698 0002229  80.8865 293.6666 12.62261748557014
GLOBALSTAR M070
1 32264U 07048B   19302.16395628 -.00000100  00000-0  19517-4 0  9990
2 32264  51.9750 277.6128 0001586 342.5420  97.8737 12.62265038554740
GLOBALSTAR M067
1 32263U 07048A   19302.18527733 -.00000084  00000-0  98904-4 0  9993
2 32263  51.9727 297.2357 0000745 302.5606 138.1186 12.40586558554288
GLOBALSTAR M071
1 31576U 07020F   19301.63818882 -.00000087 +00000-0 +96281-4 0  9995
2 31576 052.0079 333.2909 0001127 268.8151 240.3920 12.62270020235976
GLOBALSTAR M072
1 31574U 07020D   19301.84285976 -.00000122  00000-0 -10378-3 0  9991
2 31574  52.0093  63.2423 0001507 144.4862 354.2961 12.62265316573035
GLOBALSTAR M069
1 31573U 07020C   19301.61238581 -.00000078  00000-0  14248-3 0  9994
2 31573  51.9962 329.5271 0000742 309.0639 202.9990 12.62268270574503
GLOBALSTAR M065
1 31571U 07020A   19302.53988562 -.00000078  00000-0  14378-3 0  9999
2 31571  51.9934  10.6793 0000546 260.6027 207.4670 12.62267099573885
GLOBALSTAR M064
1 26084U 00008D   19301.92092841 -.00000088 +00000-0 -67822-4 0  9994
2 26084 052.0024 255.0951 0002238 057.9990 302.1059 11.88484260922472
GLOBALSTAR M060
1 26083U 00008C   19301.83713941 -.00000184  00000-0 -92430-3 0  9993
2 26083  52.0037  56.9702 0002108 251.2836 280.2555 12.17575014901791
GLOBALSTAR M062
1 26082U 00008B   19302.47648539 -.00000132  00000-0 -24337-3 0  9997
2 26082  51.9871  26.1664 0006763  40.0057  25.7189 12.43362725903148
GLOBALSTAR M063
1 26081U 00008A   19302.06730788 -.00000061  00000-0  31377-3 0  9991
2 26081  51.9925 131.6066 0004379 343.4280 164.3079 11.86121691913414
GLOBALSTAR M061
1 25964U 99062D   19302.46428503 -.00000088  00000-0 -12526-3 0  9996
2 25964  51.9770 116.7103 0006859  63.9588 310.5492 11.76728884879227
GLOBALSTAR M029
1 25963U 99062C   19301.87346984 -.00000083 +00000-0 +41677-4 0  9995
2 25963 051.9799 265.0154 0003179 033.4848 347.3952 11.99840503922039
GLOBALSTAR M034
1 25962U 99062B   19302.48768208 -.00000071  00000-0  16596-3 0  9997
2 25962  51.9882 319.8644 0014496 112.6702  50.2824 11.79391219895586
GLOBALSTAR M039
1 25961U 99062A   19301.83617199 -.00000121 +00000-0 -94340-4 0  9997
2 25961 051.9859 057.2250 0003485 113.1771 246.9463 12.62212840920265
GLOBALSTAR M031
1 25946U 99058D   19301.91045433 -.00000053 +00000-0 +38380-3 0  9994
2 25946 051.9961 085.3154 0000935 358.4794 176.5566 12.15960214914317
GLOBALSTAR M056
1 25945U 99058C   19301.87530358 -.00000100  00000-0 -14520-3 0  9997
2 25945  51.9973  70.0418 0001667  71.7450  77.8099 12.04728590914580
GLOBALSTAR M059
1 25944U 99058B   19302.18285387 -.00000109  00000-0 -28728-3 0  9994
2 25944  52.0046  14.4249 0000879 203.0066 197.1910 11.99934298915736
GLOBALSTAR M057
1 25943U 99058A   19301.82280059 -.00000131 +00000-0 -34558-3 0  9997
2 25943 051.9994 069.1937 0003360 096.7442 263.3790 12.24740508914716
GLOBALSTAR M055
1 25910U 99049D   19302.04927291 -.00000069  00000-0  21554-3 0  9993
2 25910  51.9996 130.7690 0007283 167.3164 192.7872 12.29350492915369
GLOBALSTAR M033
1 25909U 99049C   19301.72910937 -.00000211  00000-0 -11439-2 0  9994
2 25909  51.9942  20.7936 0012379  25.7954 334.3509 12.20245674917162
GLOBALSTAR M050
1 25908U 99049B   19301.73203970 -.00000145  00000-0 -64608-3 0  9999
2 25908  52.0017   6.8118 0008756 247.0730 262.1739 12.07387140904268
GLOBALSTAR M058
1 25907U 99049A   19302.16153306 -.00000118  00000-0 -44896-3 0  9990
2 25907  51.9933 204.2008 0000435 226.0477 134.0322 11.93128061907082
GLOBALSTAR M053
1 25886U 99043D   19301.94338266 -.00000063 +00000-0 +16319-3 0  9992
2 25886 051.9988 309.8744 0003092 178.3860 188.6300 11.27635827887329
GLOBALSTAR M054
1 25885U 99043C   19301.93943323 -.00000076 +00000-0 -11092-3 0  9994
2 25885 052.0119 116.9324 0005766 183.6540 330.6255 11.39183209884769
GLOBALSTAR M027
1 25884U 99043B   19301.59444467 -.00000049 +00000-0 +54906-3 0  9990
2 25884 052.0249 005.1199 0021411 265.3523 094.4825 11.04356726913797
GLOBALSTAR M024
1 25883U 99043A   19301.61653139 +.00000003 +00000-0 +23911-2 0  9990
2 25883 052.0041 345.3350 0001274 334.0190 191.6868 11.10137978886242
GLOBALSTAR M028
1 25875U 99041D   19301.85778984 -.00000075 +00000-0 +15922-3 0  9995
2 25875 051.9620 210.0531 0062757 282.8471 076.5384 12.50498829932648
GLOBALSTAR M043
1 25874U 99041C   19301.92335751 -.00000066 +00000-0 +54016-4 0  9991
2 25874 051.9389 207.1154 0013097 046.1876 033.8460 11.25655950891084
GLOBALSTAR M026
1 25873U 99041B   19302.44656866 -.00000021  00000-0  15852-2 0  9995
2 25873  51.9985 103.3123 0001638 100.8396 271.4747 11.06780238920843
GLOBALSTAR M048
1 25872U 99041A   19301.87540116 -.00000039 +00000-0 +83340-3 0  9997
2 25872 051.9352 181.5617 0012301 218.2537 224.2931 11.33819646891738
GLOBALSTAR M030
1 25854U 99037D   19302.15596154 -.00000120  00000-0 -95806-3 0  9999
2 25854  51.9872 262.3658 0003533 320.1452  39.9105 11.55064972912325
GLOBALSTAR M051
1 25853U 99037C   19301.54738393 -.00000088  00000-0 -39569-3 0  9990
2 25853  51.9810 326.9318 0001477 193.8573 166.2197 11.42176797897175
GLOBALSTAR M032
1 25852U 99037B   19301.93606151 -.00000060 +00000-0 +22719-3 0  9996
2 25852 051.9951 292.1430 0002666 341.8102 018.2602 11.19036073904355
GLOBALSTAR M035
1 25851U 99037A   19301.63350153 -.00000007 +00000-0 +21303-2 0  9998
2 25851 051.9967 325.5929 0013597 247.0171 269.1714 11.04511706868785
GLOBALSTAR M052
1 25773U 99031D   19301.54036199 -.00000024 +00000-0 +14133-2 0  9998
2 25773 051.9876 317.0619 0002662 000.6756 165.6998 11.15029579248861
GLOBALSTAR M047
1 25772U 99031C   19302.19563521 -.00000052  00000-0  47934-3 0  9990
2 25772  51.9869  11.5205 0015966 329.8831  30.1056 11.31896105912831
